73P-AI/Schwassmann-Wachmann,e,11.392,69.885,198.806,3.06205,0.183944,0.6933024,359.864,06/08.0/2006,2000,g  9.0,4.0
# From MPC 56799
73P-AJ/Schwassmann-Wachmann,e,11.385,70.041,198.663,3.06262,0.183892,0.6933024,359.864,06/08.0/2006,2000,g  9.0,4.0
# From MPC 56799
73P-AK/Schwassmann-Wachmann,e,11.389,69.784,198.822,3.06244,0.183909,0.6933024,359.927,06/08.0/2006,2000,g  9.0,4.0
# From MPC 56799
73P-AL/Schwassmann-Wachmann,e,11.395,69.843,198.857,3.06140,0.184003,0.6933024,359.916,06/08.0/2006,2000,g  9.0,4.0
# From MPC 56799
73P-AM/Schwassmann-Wachmann,e,11.394,69.876,198.815,3.06205,0.183944,0.6933024,359.951,06/08.0/2006,2000,g  9.0,4.0
# From MPC 56799
73P-AN/Schwassmann-Wachmann,e,11.393,69.870,198.820,3.06185,0.183962,0.6933024,359.940,06/08.0/2006,2000,g  9.0,4.0
# From MPC 56799
73P-AO/Schwassmann-Wachmann,e,11.210,71.286,197.007,3.07823,0.182496,0.6933024,359.853,06/07.0/2006,2000,g  9.0,4.0
# From MPC 56799
73P-AP/Schwassmann-Wachmann,e,11.393,69.895,198.794,3.06223,0.183928,0.6933024,359.874,06/06.0/2006,2000,g  9.0,4.0
# From MPC 56799
73P-AQ/Schwassmann-Wachmann,e,11.387,69.911,198.770,3.06230,0.183921,0.6933024,359.831,06/07.0/2006,2000,g  9.0,4.0
# From MPC 56799
73P-AR/Schwassmann-Wachmann,e,11.385,69.946,198.722,3.06285,0.183872,0.6933024,359.847,06/06.0/2006,2000,g  9.0,4.0
# From MPC 56799
73P-AS/Schwassmann-Wachmann,e,11.392,69.906,198.773,3.06237,0.183915,0.6933024,359.938,06/06.0/2006,2000,g  9.0,4.0
# From MPC 56799
73P-AT/Schwassmann-Wachmann,e,11.391,69.901,198.778,3.06248,0.183905,0.6933024,359.958,06/06.0/2006,2000,g  9.0,4.0
# From MPC 56799
73P-AU/Schwassmann-Wachmann,e,11.385,69.928,198.744,3.06261,0.183894,0.6933024,359.983,06/08.0/2006,2000,g  9.0,4.0
# From MPC 56800
73P-AV/Schwassmann-Wachmann,e,11.388,69.945,198.751,3.06263,0.183892,0.6933024,359.910,06/06.0/2006,2000,g  9.0,4.0
# From MPC 56800
73P-AW/Schwassmann-Wachmann,e,11.377,69.982,198.673,3.06318,0.183843,0.6933024,359.859,06/07.0/2006,2000,g  9.0,4.0
# From MPC 56800
73P-AX/Schwassmann-Wachmann,e,11.388,69.915,198.757,3.06205,0.183944,0.6933024,359.902,06/09.0/2006,2000,g  9.0,4.0
# From MPC 56800
73P-AY/Schwassmann-Wachmann,e,11.385,69.923,198.750,3.06223,0.183927,0.6933024,359.860,06/08.0/2006,2000,g  9.0,4.0
# From MPC 56800
73P-AZ/Schwassmann-Wachmann,e,11.371,70.002,198.644,3.06367,0.183798,0.6933024,359.905,06/06.0/2006,2000,g  9.0,4.0
# From MPC 56800
73P-BA/Schwassmann-Wachmann,e,11.364,70.042,198.588,3.06413,0.183756,0.6933024,359.920,06/06.0/2006,2000,g  9.0,4.0
# From MPC 56800
73P-BB/Schwassmann-Wachmann,e,11.395,69.882,198.807,3.06205,0.183944,0.6933024,359.984,06/07.0/2006,2000,g  9.0,4.0
# From MPC 56800
73P-BC/Schwassmann-Wachmann,e,11.391,69.901,198.778,3.06235,0.183917,0.6933024,359.877,06/06.0/2006,2000,g  9.0,4.0
# From MPC 56800
73P-BD/Schwassmann-Wachmann,e,11.352,70.085,198.503,3.06483,0.183694,0.6933024,359.923,06/06.0/2006,2000,g  9.0,4.0
# From MPC 56800
73P-BE/Schwassmann-Wachmann,e,11.405,69.841,198.861,3.06171,0.183975,0.6933024,359.841,06/06.0/2006,2000,g  9.0,4.0
# From MPC 56800
73P-BF/Schwassmann-Wachmann,e,11.390,69.908,198.752,3.06223,0.183928,0.6933024,359.818,06/06.0/2006,2000,g  9.0,4.0
# From MPC 56800
73P-BG/Schwassmann-Wachmann,e,11.384,69.925,198.750,3.06214,0.183936,0.6933024,359.864,06/08.0/2006,2000,g  9.0,4.0
# From MPC 56801
73P-BH/Schwassmann-Wachmann,e,11.410,69.752,198.947,3.06079,0.184058,0.6933024,359.895,06/08.0/2006,2000,g  9.0,4.0
# From MPC 56801
73P-BI/Schwassmann-Wachmann,e,11.404,69.819,198.877,3.06179,0.183967,0.6933024,359.882,06/08.0/2006,2000,g  9.0,4.0
# From MPC 56801
73P-BJ/Schwassmann-Wachmann,e,11.389,69.905,198.776,3.06209,0.183941,0.6933024,359.877,06/08.0/2006,2000,g  9.0,4.0
# From MPC 56801
73P-BK/Schwassmann-Wachmann,e,11.379,69.970,198.698,3.06264,0.183891,0.6933024,359.837,06/08.0/2006,2000,g  9.0,4.0
# From MPC 56801
73P-BL/Schwassmann-Wachmann,e,11.385,69.930,198.739,3.06239,0.183914,0.6933024,359.837,06/08.0/2006,2000,g  9.0,4.0
# From MPC 56801
73P-BM/Schwassmann-Wachmann,e,11.364,70.086,198.546,3.06367,0.183798,0.6933024,359.827,06/08.0/2006,2000,g  9.0,4.0
# From MPC 56801
73P-BN/Schwassmann-Wachmann,e,11.398,69.871,198.815,3.06180,0.183967,0.6933024,359.963,06/08.0/2006,2000,g  9.0,4.0
# From MPC 56801
73P-BO/Schwassmann-Wachmann,e,11.390,69.903,198.765,3.06206,0.183943,0.6933024,359.952,06/08.0/2006,2000,g  9.0,4.0
# From MPC 56801
73P-BP/Schwassmann-Wachmann,e,11.395,69.881,198.807,3.06196,0.183952,0.6933024,359.944,06/08.0/2006,2000,g  9.0,4.0
# From MPC 56801
73P-BQ/Schwassmann-Wachmann,e,11.404,69.836,198.862,3.06166,0.183979,0.6933024,359.945,06/08.0/2006,2000,g  9.0,4.0
# From MPC 56957
73P-BR/Schwassmann-Wachmann,e,11.389,69.910,198.774,3.06233,0.183918,0.6933024,359.971,06/06.0/2006,2000,g  9.0,4.0
# From MPC 56957
73P-BS/Schwassmann-Wachmann,e,11.399,69.885,198.814,3.06224,0.183927,0.6933024,359.847,06/05.0/2006,2000,g  9.0,4.0
# From MPC106348
73P-BT/Schwassmann-Wachmann,e,10.8603,196.1192,72.3620,3.074297,0.1828459,0.69580334,162.5589,02/06.0/2025,2000,g 11.5,6.0
# From MPEC 2022-P18
73P-BU/Schwassmann-Wachmann,e,10.9477,198.5738,71.6811,2.863801,0.2033714,0.67348155,181.3998,02/06.0/2025,2000,g 19.0,4.0
# From MPEC 2022-X67
73P-BV/Schwassmann-Wachmann,e,10.3213,68.1715,199.1898,3.079953,0.1823426,0.72134935,161.0222,02/06.0/2025,2000,g 19.0,4.0
# From MPEC 2022-R15
73P-BW/Schwassmann-Wachmann,e,10.2151,193.1946,71.5239,4.529874,0.1022292,0.78693308,91.6499,02/06.0/2025,2000,g 18.2,4.0
# From MPEC 2023-A50
73P-BX/Schwassmann-Wachmann,e,10.4413,68.2723,199.2687,3.063326,0.1838291,0.71854089,162.0427,02/06.0/2025,2000,g 17.5,4.0
# From MPEC 2022-R15
73P-BY/Schwassmann-Wachmann,e,10.9089,196.7302,71.9953,3.016487,0.1881273,0.68975715,167.7620,02/06.0/2025,2000,g 17.4,4.0
# From MPC181189
74P/Smirnova-Chernykh,e,6.3026,53.5135,80.1145,4.984496,0.0885671,0.03617786,301.6028,02/06.0/2025,2000,g  5.0,6.0
# From CCO 7
75D/Kohoutek,e,5.9271,269.5529,175.5773,3.536822,0.1481782,0.49952056,211.9176,02/06.0/2025,2000,g  9.5,6.0
# From MPEC 2022-K19
76P/West-Kohoutek-Ikemura,e,30.4891,84.1131,359.9902,3.467787,0.1526249,0.53945145,294.1362,02/06.0/2025,2000,g  8.0,12.0
# From MPEC 2024-UA9
77P/Longmore,e,24.3223,14.7531,196.6331,3.620808,0.1430526,0.35170698,96.5874,02/06.0/2025,2000,g  7.0,8.0
# From MPC181189
78P/Gehrels,e,6.2572,210.5101,192.7427,3.734200,0.1365865,0.46313122,291.1514,02/06.0/2025,2000,g  5.5,8.0
# From MPEC 2024-PC5
79P/duToit-Hartley,e,3.1489,280.5156,281.7536,2.942826,0.1952348,0.61924770,96.5815,02/06.0/2025,2000,g 16.0,4.0
# From MPEC 2024-Q20
80P/Peters-Hartley,e,29.9259,259.7747,339.2825,4.022074,0.1221881,0.59780257,96.6038,02/06.0/2025,2000,g  9.0,8.0
# From MPEC 2024-RQ6
81P/Wild,e,3.2378,136.0963,41.5559,3.451786,0.1536874,0.53751523,120.3864,02/06.0/2025,2000,g  7.0,6.0
# From MPC133426
82P/Gehrels,e,1.1293,239.2190,226.4685,4.131852,0.1173510,0.12274708,283.9589,02/06.0/2025,2000,g 15.0,4.0
# From NK 932
83D/Russell,e,17.8290,226.2991,334.3894,3.843501,0.1308017,0.44134787,177.3945,02/06.0/2025,2000,g  9.0,4.0
# From MPEC 2020-FB5
84P/Giclas,e,7.5525,108.1437,281.6825,3.550065,0.1473498,0.51582973,251.4762,02/06.0/2025,2000,g  9.5,8.0
# From unp
85D/Boethin,e,4.1736,65.2901,333.0903,5.045779,0.0869584,0.77604132,143.6157,02/06.0/2025,2000,g  6.5,8.0
# From MPEC 2022-YB4
86P/Wild,e,15.5238,72.0886,181.0491,3.641469,0.1418369,0.36473577,155.6514,02/06.0/2025,2000,g 11.0,6.0
# From MPEC 2020-SI8
87P/Bus,e,2.6785,185.4459,51.8855,4.343865,0.1088653,0.22080865,195.2948,02/06.0/2025,2000,g  7.2,10.0
# From MPEC 2024-C04
88P/Howell,e,4.3820,56.6680,235.8901,3.108105,0.1798707,0.56317274,287.0059,02/06.0/2025,2000,g 11.0,6.0
# From MPC181189
89P/Russell,e,12.0721,41.3443,250.4078,3.750609,0.1356911,0.40755262,42.9331,02/06.0/2025,2000,g 11.5,6.0
# From MPEC 2022-K19
90P/Gehrels,e,9.6418,13.1958,29.1706,6.053400,0.0661767,0.51083233,184.2257,02/06.0/2025,2000,g  8.5,6.0
# From MPEC 2023-VM5
91P/Russell,e,16.4001,242.6206,357.8454,4.112114,0.1181970,0.26417514,200.4542,02/06.0/2025,2000,g  7.5,6.0
# From MPEC 2014-J58
92P/Sanguin,e,19.4831,181.3680,163.7904,5.343603,0.0797908,0.66015197,289.0399,02/06.0/2025,2000,g 12.0,6.0
# From MPEC 2024-R10
93P/Lovas,e,12.2082,339.5555,75.0103,4.374941,0.1077074,0.61400943,311.4366,02/06.0/2025,2000,g  9.5,6.0
# From MPEC 2024-R10
94P/Russell,e,6.1878,70.8510,92.3730,3.510112,0.1498727,0.36589955,93.9557,02/06.0/2025,2000,g  9.0,6.0
# From MPC 75717
95P/Chiron,e,6.9260,209.1950,339.3516,13.70221,0.0194320,0.37786360,207.1901,02/06.0/2025,2000,g  6.5,2.0
# From MPEC 2023-N01
96P/Machholz,e,57.5867,93.9628,14.7361,3.031078,0.1867705,0.96169074,137.6049,02/06.0/2025,2000,g 13.0,4.8
# From MPC106348
96P-B/Machholz,e,57.5026,14.6332,93.9923,3.030004,0.1868699,0.96172286,137.6931,02/06.0/2025,2000,g 13.0,4.8
# From MPC103849
96P-C/Machholz,e,58.5311,94.3495,15.5380,3.011920,0.1885553,0.95889850,359.8715,07/14.0/2012,2000,g  9.0,4.0
# From MPEC 2024-GJ3
97P/Metcalf-Brewington,e,17.9415,184.0775,230.1732,4.769053,0.0946359,0.46010388,102.7684,02/06.0/2025,2000,g  5.5,6.0
# From MPEC 2021-W31
98P/Takamizawa,e,10.6085,114.5553,157.7050,3.785146,0.1338382,0.56464554,199.9230,02/06.0/2025,2000,g  9.0,8.0
# From MPEC 2024-R10
99P/Kowal,e,4.3391,28.0746,174.5537,6.094296,0.0655117,0.22864082,67.7311,02/06.0/2025,2000,g  4.5,6.0
# From MPEC 2023-OA6
100P/Hartley,e,25.5671,37.6859,181.9409,3.430430,0.1551248,0.41138417,141.2649,02/06.0/2025,2000,g  9.0,8.0
# From MPEC 2024-R10
101P/Chernykh,e,5.0486,116.1307,277.9631,5.816412,0.0702621,0.59583413,130.0330,02/06.0/2025,2000,g 10.0,4.8
# From MPC105241
101P-B/Chernykh,e,5.0502,278.5114,115.5855,5.831949,0.0699815,0.59604486,128.2702,02/06.0/2025,2000,g  9.0,4.0
# From MPEC 2022-C56
102P/Shoemaker,e,25.8579,339.4008,20.6798,3.819685,0.1320270,0.45616426,194.8847,02/06.0/2025,2000,g  6.5,8.0
# From MPEC 2024-NE4
103P/Hartley,e,13.6095,219.7530,181.3224,3.475351,0.1521269,0.69360727,73.4050,02/06.0/2025,2000,g  8.5,8.0
# From MPEC 2023-G31
